[{"OBJECT_NAME":"SALSAT","OBJECT_ID":"2020-068K","EPOCH":"2026-03-09T22:26:21.804576","MEAN_MOTION":15.28191989,"ECCENTRICITY":0.00082652,"INCLINATION":97.8859,"RA_OF_ASC_NODE":66.0795,"ARG_OF_PERICENTER":295.8051,"MEAN_ANOMALY":64.2334,"EPHEMERIS_TYPE":0,"CLASSIFICATION_TYPE":"U","NORAD_CAT_ID":46495,"ELEMENT_SET_NO":999,"REV_AT_EPOCH":30019,"BSTAR":0.00040842582,"MEAN_MOTION_DOT":0.00011156,"MEAN_MOTION_DDOT":0},{"OBJECT_NAME":"STARLINK-31102","OBJECT_ID":"2024-002L","EPOCH":"2026-03-09T18:16:57.902592","MEAN_MOTION":15.30183866,"ECCENTRICITY":0.00012399,"INCLINATION":53.159,"RA_OF_ASC_NODE":229.7879,"ARG_OF_PERICENTER":98.4344,"MEAN_ANOMALY":261.6797,"EPHEMERIS_TYPE":0,"CLASSIFICATION_TYPE":"U","NORAD_CAT_ID":58715,"ELEMENT_SET_NO":999,"REV_AT_EPOCH":12202,"BSTAR":8.3086465e-5,"MEAN_MOTION_DOT":2.101e-5,"MEAN_MOTION_DDOT":0}]
